     2.10           G: GLONASS NAV DATA                     RINEX VERSION / TYPE
teqc  2015Jun23                         20211214 01:25:49UTCPGM / RUN BY / DATE
Linux 2.4.21-27.ELsmp|Opteron|gcc -static|Linux x86_64|=+   COMMENT
  2021    11    20   -4.656612873077D-10                    CORR TO SYSTEM TIME
                                                            END OF HEADER
24 21 11 21 11 15  0.0 6.788410246372D-05 1.818989403546D-12 3.960000000000D+04
   -7.178069824219D+03-1.845752716064D+00 1.862645149231D-09 0.000000000000D+00
    1.660556640625D+04 1.639036178589D+00-9.313225746155D-10 2.000000000000D+00
   -1.797127490234D+04 2.246853828430D+00 9.313225746155D-10 0.000000000000D+00
13 21 11 21 11 15  0.0-6.382539868355D-05-0.000000000000D+00 4.038000000000D+04
    4.611642578125D+03-2.793707847595D+00-0.000000000000D+00 0.000000000000D+00
    1.257115039062D+04-1.021125793457D+00-9.313225746155D-10-2.000000000000D+00
    2.169614990234D+04 1.184974670410D+00-1.862645149231D-09 0.000000000000D+00
 2 21 11 21 11 45  0.0 5.007870495319D-04 0.000000000000D+00 4.140000000000D+04
    2.796640625000D+03-2.204408645630D-01 2.793967723846D-09 0.000000000000D+00
    2.362946240234D+04-1.239292144775D+00-9.313225746155D-10-4.000000000000D+00
   -9.067479003906D+03-3.291275024414D+00-0.000000000000D+00 0.000000000000D+00
 1 21 11 21 11 45  0.0 8.841417729855D-05 0.000000000000D+00 4.140000000000D+04
   -8.020281738281D+03-9.419841766357D-01 1.862645149231D-09 0.000000000000D+00
    9.654089355469D+03-2.889356613159D+00-0.000000000000D+00 1.000000000000D+00
   -2.221464941406D+04-9.150686264038D-01 1.862645149231D-09 0.000000000000D+00
 3 21 11 21 11 45  0.0 4.685204476118D-05 0.000000000000D+00 4.140000000000D+04
    1.094233349609D+04 4.861011505127D-01 1.862645149231D-09 0.000000000000D+00
    2.143510205078D+04 1.048705101013D+00-9.313225746155D-10 5.000000000000D+00
    8.399929199219D+03-3.328511238098D+00-1.862645149231D-09 0.000000000000D+00
23 21 11 21 11 45  0.0-2.073869109154D-05-9.094947017729D-13 4.140000000000D+04
   -1.777353759766D+04 2.494764328003D-01-9.313225746155D-10 0.000000000000D+00
    1.828622363281D+04 9.937953948975D-02-2.793967723846D-09 3.000000000000D+00
    7.229794921875D+02 3.607863426208D+00 9.313225746155D-10 0.000000000000D+00
24 21 11 21 11 45  0.0 6.788689643145D-05 1.818989403546D-12 4.140000000000D+04
   -9.876487304688D+03-1.146740913391D+00 9.313225746155D-10 0.000000000000D+00
    1.940498730469D+04 1.425085067749D+00-1.862645149231D-09 2.000000000000D+00
   -1.328397656250D+04 2.927344322205D+00 9.313225746155D-10 0.000000000000D+00
17 21 11 21 11 45  0.0 4.768483340740D-04 2.728484105319D-12 4.254000000000D+04
    4.422460449219D+03-2.095970153809D+00 3.725290298462D-09 0.000000000000D+00
    1.047847900391D+04 2.327434539795D+00 0.000000000000D+00 4.000000000000D+00
   -2.282304199219D+04 6.578140258789D-01 0.000000000000D+00 0.000000000000D+00
 2 21 11 21 12 15  0.0 5.007879808545D-04 0.000000000000D+00 4.320000000000D+04
    1.973353515625D+03-7.175779342651D-01 2.793967723846D-09 0.000000000000D+00
    2.079232568359D+04-1.875227928162D+00-9.313225746155D-10-4.000000000000D+00
   -1.456236669922D+04-2.774277687073D+00 0.000000000000D+00 0.000000000000D+00
23 21 11 21 12 15  0.0-2.074148505926D-05-9.094947017729D-13 4.320000000000D+04
   -1.682651513672D+04 7.645702362061D-01-2.793967723846D-09 0.000000000000D+00
    1.780877587891D+04-6.498079299927D-01-1.862645149231D-09 3.000000000000D+00
    7.105294921875D+03 3.437554359436D+00 9.313225746155D-10 0.000000000000D+00
 3 21 11 21 12 15  0.0 4.685297608376D-05 0.000000000000D+00 4.320000000000D+04
    1.165696386719D+04 2.664203643799D-01 1.862645149231D-09 0.000000000000D+00
    2.255360546875D+04 1.972007751465D-01-9.313225746155D-10 5.000000000000D+00
    2.160639648438D+03-3.558936119080D+00-1.862645149231D-09 0.000000000000D+00
17 21 11 21 12 15  0.0 4.768539220095D-04 2.728484105319D-12 4.320000000000D+04
    1.111613769531D+03-1.561557769775D+00 2.793967723846D-09 0.000000000000D+00
    1.476302099609D+04 2.385693550110D+00-9.313225746155D-10 4.000000000000D+00
   -2.077155810547D+04 1.606674194336D+00 0.000000000000D+00 0.000000000000D+00
24 21 11 21 12 15  0.0 6.788969039917D-05 1.818989403546D-12 4.320000000000D+04
   -1.132003271484D+04-4.702672958374D-01-0.000000000000D+00 0.000000000000D+00
    2.157447509766D+04 9.436712265015D-01-1.862645149231D-09 2.000000000000D+00
   -7.569252441406D+03 3.381069183350D+00 9.313225746155D-10 0.000000000000D+00
 2 21 11 21 12 45  0.0 5.007889121771D-04 0.000000000000D+00 4.500000000000D+04
    1.589033203125D+02-1.304808616638D+00 1.862645149231D-09 0.000000000000D+00
    1.703410351562D+04-2.253489494324D+00-9.313225746155D-10-4.000000000000D+00
   -1.892515917969D+04-2.041654586792D+00 9.313225746155D-10 0.000000000000D+00
23 21 11 21 12 45  0.0-2.074334770441D-05-9.094947017729D-13 4.500000000000D+04
   -1.517348779297D+04 1.027175903320D+00-3.725290298462D-09 0.000000000000D+00
    1.590863867188D+04-1.462305068970D+00-1.862645149231D-09 3.000000000000D+00
    1.293829736328D+04 3.001476287842D+00 9.313225746155D-10 0.000000000000D+00
 3 21 11 21 12 45  0.0 4.685390740633D-05 0.000000000000D+00 4.500000000000D+04
    1.176157470703D+04-1.849231719971D-01 1.862645149231D-09 0.000000000000D+00
    2.219061132812D+04-5.788269042969D-01-1.862645149231D-09 5.000000000000D+00
   -4.246197265625D+03-3.513352394104D+00-9.313225746155D-10 0.000000000000D+00
17 21 11 21 12 45  0.0 4.768604412675D-04 2.728484105319D-12 4.500000000000D+04
   -1.156282714844D+03-9.559612274170D-01 1.862645149231D-09 0.000000000000D+00
    1.888926953125D+04 2.149366378784D+00-1.862645149231D-09 4.000000000000D+00
   -1.711417431641D+04 2.430600166321D+00 9.313225746155D-10 0.000000000000D+00
24 21 11 21 12 45  0.0 6.789248436689D-05 1.818989403546D-12 4.500000000000D+04
   -1.164663476562D+04 7.844257354736D-02-9.313225746155D-10 0.000000000000D+00
    2.267045654297D+04 2.439556121826D-01-1.862645149231D-09 2.000000000000D+00
   -1.269457519531D+03 3.573261260986D+00 9.313225746155D-10 0.000000000000D+00
 4 21 11 21 12 45  0.0 1.152865588665D-04 1.818989403546D-12 4.518000000000D+04
    1.642759326172D+04 1.050516128540D+00 9.313225746155D-10 0.000000000000D+00
    1.490863574219D+04 1.373746871948D+00-9.313225746155D-10 6.000000000000D+00
    1.259806542969D+04-3.001251220703D+00-1.862645149231D-09 0.000000000000D+00
 2 21 11 21 13 15  0.0 5.007898434997D-04 0.000000000000D+00 4.680000000000D+04
   -2.713125488281D+03-1.873945236206D+00 1.862645149231D-09 0.000000000000D+00
    1.285503173828D+04-2.341230392456D+00-9.313225746155D-10-4.000000000000D+00
   -2.181710351562D+04-1.150747299194D+00 9.313225746155D-10 0.000000000000D+00
23 21 11 21 13 15  0.0-2.074614167213D-05-9.094947017729D-13 4.680000000000D+04
   -1.329135986328D+04 1.020246505737D+00-4.656612873077D-09 0.000000000000D+00
    1.257750439453D+04-2.219929695129D+00-0.000000000000D+00 3.000000000000D+00
    1.777100976562D+04 2.333336830139D+00 0.000000000000D+00 0.000000000000D+00
 3 21 11 21 13 15  0.0 4.685390740633D-05 0.000000000000D+00 4.680000000000D+04
    1.088810791016D+04-8.070306777954D-01 1.862645149231D-09 0.000000000000D+00
    2.057621240234D+04-1.178606033325D+00-1.862645149231D-09 5.000000000000D+00
   -1.032320410156D+04-3.194787979126D+00-0.000000000000D+00 0.000000000000D+00
 4 21 11 21 13 15  0.0 1.152902841568D-04 1.818989403546D-12 4.680000000000D+04
    1.806621679688D+04 7.268877029419D-01 9.313225746155D-10 0.000000000000D+00
    1.668062207031D+04 5.992918014526D-01-1.862645149231D-09 6.000000000000D+00
    6.778634765625D+03-3.422844886780D+00-1.862645149231D-09 0.000000000000D+00
17 21 11 21 13 15  0.0 4.768669605255D-04 2.728484105319D-12 4.680000000000D+04
   -2.355297851562D+03-3.923912048340D-01 0.000000000000D+00 0.000000000000D+00
    2.232948535156D+04 1.629162788391D+00-1.862645149231D-09 4.000000000000D+00
   -1.213468554688D+04 3.066205978394D+00 9.313225746155D-10 0.000000000000D+00
24 21 11 21 13 15  0.0 6.789620965719D-05 1.818989403546D-12 4.680000000000D+04
   -1.116275244141D+04 4.199466705322D-01-2.793967723846D-09 0.000000000000D+00
    2.237323486328D+04-5.874204635620D-01-1.862645149231D-09 2.000000000000D+00
    5.128444824219D+03 3.489430427551D+00 9.313225746155D-10 0.000000000000D+00
13 21 11 21 13 15  0.0-6.383005529642D-05-0.000000000000D+00 4.743000000000D+04
   -1.607764208984D+04-2.184268951416D+00-4.656612873077D-09 0.000000000000D+00
    1.110294531250D+04 5.351791381836D-01-0.000000000000D+00-2.000000000000D+00
    1.638633056641D+04-2.503167152405D+00 9.313225746155D-10 0.000000000000D+00
18 21 11 21 13 15  0.0 9.793415665627D-05 9.094947017729D-13 4.824000000000D+04
    6.976631835938D+03-1.023250579834D+00 2.793967723846D-09 0.000000000000D+00
    9.981588867188D+03 2.901755332947D+00-9.313225746155D-10-3.000000000000D+00
   -2.238597119141D+04 9.779968261719D-01 0.000000000000D+00 0.000000000000D+00
 2 21 11 21 13 45  0.0 5.007907748222D-04 0.000000000000D+00 4.860000000000D+04
   -6.510441406250D+03-2.315579414368D+00 9.313225746155D-10 0.000000000000D+00
    8.772556152344D+03-2.152322769165D+00-9.313225746155D-10-4.000000000000D+00
   -2.301455761719D+04-1.712455749512D-01 1.862645149231D-09 0.000000000000D+00
 4 21 11 21 13 45  0.0 1.152930781245D-04 1.818989403546D-12 4.860000000000D+04
    1.890042187500D+04 1.647529602051D-01 1.862645149231D-09 0.000000000000D+00
    1.711450292969D+04-9.504795074463D-02-1.862645149231D-09 6.000000000000D+00
    4.349643554688D+02-3.579895019531D+00-9.313225746155D-10 0.000000000000D+00
 3 21 11 21 13 45  0.0 4.685390740633D-05 0.000000000000D+00 4.860000000000D+04
    8.809800781250D+03-1.505981445312D+00 1.862645149231D-09 0.000000000000D+00
    1.809607226562D+04-1.532416343689D+00-1.862645149231D-09 5.000000000000D+00
   -1.559798681641D+04-2.627808570862D+00 0.000000000000D+00 0.000000000000D+00
